H1 CPF  1  MCC 2022  8 12 15  7241 larets
H2  0304206 5557    27944 2022 08 11 23 45 00 2022 08 16 23 57 00   180 1 1  0 0 0
H9
10 0 59805 79740.000000 0      1013553.051      -257591.886      6965936.203
10 0 59805 79920.000000 0       311907.123     -1426747.629      6890887.413
10 0 59805 80100.000000 0      -430876.196     -2524884.055      6562589.735
10 0 59805 80280.000000 0     -1185295.525     -3511220.637      5993053.571
10 0 59805 80460.000000 0     -1920402.736     -4349828.685      5203151.532
10 0 59805 80640.000000 0     -2605077.255     -5010975.143      4221883.478
10 0 59805 80820.000000 0     -3209360.933     -5472228.659      3085331.214
10 0 59805 81000.000000 0     -3705781.630     -5719265.130      1835321.178
10 0 59805 81180.000000 0     -4070598.923     -5746332.172       517853.911
10 0 59805 81360.000000 0     -4284914.147     -5556352.334      -818637.954
10 0 59805 81540.000000 0     -4335585.244     -5160657.146     -2125130.241
10 0 59805 81720.000000 0     -4215895.365     -4578363.375     -3353861.613
10 0 59805 81900.000000 0     -3925941.584     -3835430.926     -4460109.138
10 0 59805 82080.000000 0     -3472732.847     -2963466.904     -5403807.177
10 0 59805 82260.000000 0     -2870004.219     -1998344.345     -6150953.306
10 0 59805 82440.000000 0     -2137765.322      -978706.061     -6674760.944
10 0 59805 82620.000000 0     -1301607.052        55580.274     -6956535.386
10 0 59805 82800.000000 0      -391800.904      1064952.607     -6986259.592
10 0 59805 82980.000000 0       557775.074      2011621.464     -6762901.078
10 0 59805 83160.000000 0      1510858.414      2860939.266     -6294443.808
10 0 59805 83340.000000 0      2430147.463      3582640.434     -5597639.472
10 0 59805 83520.000000 0      3278727.287      4151913.246     -4697472.079
10 0 59805 83700.000000 0      4021533.508      4550272.000     -3626344.624
10 0 59805 83880.000000 0      4626805.502      4766197.289     -2422989.790
10 0 59805 84060.000000 0      5067464.265      4795506.276     -1131121.401
10 0 59805 84240.000000 0      5322346.922      4641428.740       202133.604
10 0 59805 84420.000000 0      5377226.841      4314375.040      1527968.876
10 0 59805 84600.000000 0      5225564.946      3831403.610      2797722.679
10 0 59805 84780.000000 0      4868946.749      3215404.441      3964719.345
10 0 59805 84960.000000 0      4317168.418      2494038.699      4986036.883
10 0 59805 85140.000000 0      3587975.136      1698494.251      5824118.020
10 0 59805 85320.000000 0      2706461.239       862123.277      6448164.793
10 0 59805 85500.000000 0      1704167.934        19025.168      6835257.006
10 0 59805 85680.000000 0       617925.307      -797353.604      6971174.759
10 0 59805 85860.000000 0      -511525.488     -1555556.901      6850909.663
10 0 59805 86040.000000 0     -1641079.563     -2227343.919      6478842.197
10 0 59805 86220.000000 0     -2726925.257     -2788753.735      5868586.109
10 0 59806     0.000000 0     -3726258.221     -3220976.814      5042517.454
10 0 59806   180.000000 0     -4599006.994     -3511009.192      4030979.721
10 0 59806   360.000000 0     -5309482.594     -3652052.574      2871175.152
10 0 59806   540.000000 0     -5827880.935     -3643646.014      1605789.243
10 0 59806   720.000000 0     -6131570.415     -3491523.718       281386.870
10 0 59806   900.000000 0     -6206090.569     -3207198.560     -1053355.856
10 0 59806  1080.000000 0     -6045809.063     -2807295.267     -2349503.238
10 0 59806  1260.000000 0     -5654197.886     -2312668.857     -3559706.636
10 0 59806  1440.000000 0     -5043726.855     -1747364.101     -4639954.884
10 0 59806  1620.000000 0     -4235393.892     -1137474.862     -5551160.006
10 0 59806  1800.000000 0     -3257925.404      -509961.753     -6260522.613
10 0 59806  1980.000000 0     -2146694.043       108515.124     -6742634.727
10 0 59806  2160.000000 0      -942410.087       692695.872     -6980302.047
10 0 59806  2340.000000 0       310360.077      1219714.267     -6965081.368
10 0 59806  2520.000000 0      1564799.424      1669959.227     -6697539.372
10 0 59806  2700.000000 0      2773537.336      2027782.297     -6187237.941
10 0 59806  2880.000000 0      3890394.363      2282033.395     -5452431.439
10 0 59806  3060.000000 0      4872118.425      2426406.313     -4519482.017
10 0 59806  3240.000000 0      5680065.607      2459585.746     -3421996.894
10 0 59806  3420.000000 0      6281758.351      2385185.263     -2199691.295
10 0 59806  3600.000000 0      6652254.227      2211474.751      -897002.006
10 0 59806  3780.000000 0      6775249.778      1950901.829       438515.571
10 0 59806  3960.000000 0      6643850.179      1619423.752      1757944.678
10 0 59806  4140.000000 0      6260959.478      1235683.591      3012840.109
10 0 59806  4320.000000 0      5639262.978       820068.965      4157063.366
10 0 59806  4500.000000 0      4800792.189       393704.013      5148527.748
10 0 59806  4680.000000 0      3776102.335       -22569.821      5950774.874
10 0 59806  4860.000000 0      2603103.051      -409174.437      6534323.604
10 0 59806  5040.000000 0      1325604.720      -748686.318      6877739.681
10 0 59806  5220.000000 0        -8355.769     -1026604.589      6968407.569
10 0 59806  5400.000000 0     -1348351.313     -1231965.375      6802978.202
10 0 59806  5580.000000 0     -2643488.559     -1357777.814      6387485.338
10 0 59806  5760.000000 0     -3844355.069     -1401264.518      5737137.408
10 0 59806  5940.000000 0     -4904936.411     -1363902.939      4875790.472
10 0 59806  6120.000000 0     -5784431.853     -1251267.647      3835093.981
10 0 59806  6300.000000 0     -6448882.389     -1072674.055      2653331.543
10 0 59806  6480.000000 0     -6872540.866      -840640.867      1374001.658
10 0 59806  6660.000000 0     -7038923.075      -570197.775        44178.948
10 0 59806  6840.000000 0     -6941468.784      -278072.596     -1287277.759
10 0 59806  7020.000000 0     -6583780.169        18198.168     -2571580.860
10 0 59806  7200.000000 0     -5979434.821       301184.942     -3761845.130
10 0 59806  7380.000000 0     -5151389.772       554460.344     -4814820.096
10 0 59806  7560.000000 0     -4131013.599       763427.732     -5692441.995
10 0 59806  7740.000000 0     -2956814.741       916042.156     -6363151.612
10 0 59806  7920.000000 0     -1672936.122      1003391.958     -6802946.062
10 0 59806  8100.000000 0      -327484.650      1020124.395     -6996151.325
10 0 59806  8280.000000 0      1029242.818       964702.609     -6935909.287
10 0 59806  8460.000000 0      2346583.889       839487.360     -6624391.675
10 0 59806  8640.000000 0      3575350.060       650642.120     -6072732.758
10 0 59806  8820.000000 0      4669622.492       407863.598     -5300674.204
10 0 59806  9000.000000 0      5588453.896       123944.007     -4335932.305
10 0 59806  9180.000000 0      6297427.765      -185820.872     -3213285.587
10 0 59806  9360.000000 0      6770007.191      -504359.837     -1973392.108
10 0 59806  9540.000000 0      6988612.038      -813661.851      -661361.341
10 0 59806  9720.000000 0      6945358.020     -1095679.787       674879.547
10 0 59806  9900.000000 0      6642410.231     -1333258.904      1986360.579
10 0 59806 10080.000000 0      6091921.466     -1511042.015      3224912.143
10 0 59806 10260.000000 0      5315546.725     -1616299.196      4344990.618
10 0 59806 10440.000000 0      4343560.894     -1639639.453      5305396.746
10 0 59806 10620.000000 0      3213629.539     -1575564.103      6070815.865
10 0 59806 10800.000000 0      1969294.449     -1422836.395      6613121.506
10 0 59806 10980.000000 0       658247.311     -1184653.281      6912395.936
10 0 59806 11160.000000 0      -669535.486      -868609.436      6957643.261
10 0 59806 11340.000000 0     -1963721.139      -486454.126      6747176.389
10 0 59806 11520.000000 0     -3175542.755       -53650.664      6288678.787
10 0 59806 11700.000000 0     -4259657.459       411248.615      5598941.962
10 0 59806 11880.000000 0     -5175881.430       887389.359      4703276.209
10 0 59806 12060.000000 0     -5890732.960      1352535.380      3634600.515
10 0 59806 12240.000000 0     -6378714.129      1784084.752      2432235.167
10 0 59806 12420.000000 0     -6623273.270      2160134.321      1140438.151
10 0 59806 12600.000000 0     -6617401.575      2460540.534      -193265.289
10 0 59806 12780.000000 0     -6363823.669      2667919.440     -1519891.165
10 0 59806 12960.000000 0     -5874774.205      2768531.180     -2790854.722
10 0 59806 13140.000000 0     -5171376.829      2753005.662     -3959794.842
10 0 59806 13320.000000 0     -4282663.929      2616869.581     -4984277.656
10 0 59806 13500.000000 0     -3244305.178      2360855.414     -5827307.107
10 0 59806 13680.000000 0     -2097121.556      1990987.443     -6458594.785
10 0 59806 13860.000000 0      -885456.013      1518447.168     -6855566.322
10 0 59806 14040.000000 0       344532.090       959226.757     -7004082.504
10 0 59806 14220.000000 0      1546583.152       333589.898     -6898879.552
10 0 59806 14400.000000 0      2676026.338      -334645.376     -6543733.373
10 0 59806 14580.000000 0      3691393.930     -1018985.055     -5951337.228
10 0 59806 14760.000000 0      4555915.346     -1691272.466     -5142898.321
10 0 59806 14940.000000 0      5238852.044     -2322812.028     -4147457.333
10 0 59806 15120.000000 0      5716627.886     -2885568.854     -3000927.367
10 0 59806 15300.000000 0      5973704.697     -3353394.060     -1744865.220
10 0 59806 15480.000000 0      6003155.490     -3703221.479      -425001.878
10 0 59806 15660.000000 0      5806897.860     -3916176.965       910419.286
10 0 59806 15840.000000 0      5395564.553     -3978541.108      2212435.681
10 0 59806 16020.000000 0      4788003.847     -3882505.836      3433213.784
10 0 59806 16200.000000 0      4010433.379     -3626678.713      4527858.353
99
